[{"OBJECT_NAME":"STARLINK-31768","OBJECT_ID":"2024-080R","EPOCH":"2026-03-09T07:28:13.060128","MEAN_MOTION":15.27578545,"ECCENTRICITY":0.00011154,"INCLINATION":43.005,"RA_OF_ASC_NODE":40.1412,"ARG_OF_PERICENTER":276.1558,"MEAN_ANOMALY":83.9167,"EPHEMERIS_TYPE":0,"CLASSIFICATION_TYPE":"U","NORAD_CAT_ID":59616,"ELEMENT_SET_NO":999,"REV_AT_EPOCH":10447,"BSTAR":-4.19702e-7,"MEAN_MOTION_DOT":-2.74e-6,"MEAN_MOTION_DDOT":0},{"OBJECT_NAME":"CRRES DEB [CANISTER]","OBJECT_ID":"1990-065K","EPOCH":"2026-03-07T06:14:24.153792","MEAN_MOTION":2.44853821,"ECCENTRICITY":0.7044102,"INCLINATION":16.9154,"RA_OF_ASC_NODE":102.2922,"ARG_OF_PERICENTER":63.387,"MEAN_ANOMALY":350.7416,"EPHEMERIS_TYPE":0,"CLASSIFICATION_TYPE":"U","NORAD_CAT_ID":21594,"ELEMENT_SET_NO":999,"REV_AT_EPOCH":30512,"BSTAR":0.00057382,"MEAN_MOTION_DOT":-6.2e-7,"MEAN_MOTION_DDOT":0}]
